[{"OBJECT_NAME":"SENTINEL-2B","OBJECT_ID":"2017-013A","EPOCH":"2026-03-09T23:26:28.535424","MEAN_MOTION":14.30819717,"ECCENTRICITY":0.00011315,"INCLINATION":98.565,"RA_OF_ASC_NODE":145.1663,"ARG_OF_PERICENTER":94.2934,"MEAN_ANOMALY":265.8378,"EPHEMERIS_TYPE":0,"CLASSIFICATION_TYPE":"U","NORAD_CAT_ID":42063,"ELEMENT_SET_NO":999,"REV_AT_EPOCH":47045,"BSTAR":3.8552046e-5,"MEAN_MOTION_DOT":5.7e-7,"MEAN_MOTION_DDOT":0},{"OBJECT_NAME":"NOAA 16 DEB","OBJECT_ID":"2000-055TM","EPOCH":"2026-03-08T23:57:59.745024","MEAN_MOTION":14.31485352,"ECCENTRICITY":0.00218486,"INCLINATION":98.7397,"RA_OF_ASC_NODE":145.7818,"ARG_OF_PERICENTER":356.1985,"MEAN_ANOMALY":3.9028,"EPHEMERIS_TYPE":0,"CLASSIFICATION_TYPE":"U","NORAD_CAT_ID":42417,"ELEMENT_SET_NO":999,"REV_AT_EPOCH":51619,"BSTAR":0.0026913151,"MEAN_MOTION_DOT":7.129e-5,"MEAN_MOTION_DDOT":0}]
